{
  "type": "FeatureCollection",
  "features": [
    {
      "type": "Feature",
      "properties": {
        "norad_id": 31248,
        "name": "FENGYUN 1C DEB",
        "group": "fengyun-1c-debris",
        "lat": -77.47321992863463,
        "lon": 93.90297339170542,
        "alt_km": 854.1803143279076,
        "timestamp": "2025-12-15T04:01:20.732917+00:00",
        "meta_object_name": "FENGYUN 1C DEB",
        "meta_object_id": "1999-025BME",
        "meta_epoch": "2025-12-13T02:33:19.814976",
        "meta_mean_motion": 13.92783934,
        "meta_eccentricity": 0.010977,
        "meta_inclination": 99.2646,
        "meta_ra_of_asc_node": 44.5655,
        "meta_arg_of_pericenter": 310.3603,
        "meta_mean_anomaly": 79.7275,
        "meta_ephemeris_type": 0,
        "meta_classification_type": "U",
        "meta_norad_cat_id": 31248,
        "meta_element_set_no": 999,
        "meta_rev_at_epoch": 94829,
        "meta_bstar": 0.00082924682,
        "meta_mean_motion_dot": 1.082e-05,
        "meta_mean_motion_ddot": 0,
        "tle_line1": "1 31248U 99025BME 25347.10647934  .00001082  00000+0  82925-3 0  9997",
        "tle_line2": "2 31248  99.2646  44.5655 0109770 310.3603  79.7275 13.92783934948293"
      },
      "geometry": {
        "type": "Point",
        "coordinates": [
          93.90297339170542,
          -77.47321992863463
        ]
      }
    },
    {
      "type": "Feature",
      "properties": {
        "norad_id": 31250,
        "name": "FENGYUN 1C DEB",
        "group": "fengyun-1c-debris",
        "lat": -17.631415564048474,
        "lon": 16.323745595514467,
        "alt_km": 892.5528728137497,
        "timestamp": "2025-12-15T04:01:20.732928+00:00",
        "meta_object_name": "FENGYUN 1C DEB",
        "meta_object_id": "1999-025BMG",
        "meta_epoch": "2025-12-14T01:23:50.068032",
        "meta_mean_motion": 14.03091671,
        "meta_eccentricity": 0.0133292,
        "meta_inclination": 98.3881,
        "meta_ra_of_asc_node": 197.9885,
        "meta_arg_of_pericenter": 294.3199,
        "meta_mean_anomaly": 64.4099,
        "meta_ephemeris_type": 0,
        "meta_classification_type": "U",
        "meta_norad_cat_id": 31250,
        "meta_element_set_no": 999,
        "meta_rev_at_epoch": 95536,
        "meta_bstar": 0.0014658086,
        "meta_mean_motion_dot": 2.425e-05,
        "meta_mean_motion_ddot": 0,
        "tle_line1": "1 31250U 99025BMG 25348.05821838  .00002425  00000+0  14658-2 0  9991",
        "tle_line2": "2 31250  98.3881 197.9885 0133292 294.3199  64.4099 14.03091671955366"
      },
      "geometry": {
        "type": "Point",
        "coordinates": [
          16.323745595514467,
          -17.631415564048474
        ]
      }
    },
    {
      "type": "Feature",
      "properties": {
        "norad_id": 31252,
        "name": "FENGYUN 1C DEB",
        "group": "fengyun-1c-debris",
        "lat": -41.77078957934318,
        "lon": -179.56275487820497,
        "alt_km": 679.775912961346,
        "timestamp": "2025-12-15T04:01:20.732938+00:00",
        "meta_object_name": "FENGYUN 1C DEB",
        "meta_object_id": "1999-025BMJ",
        "meta_epoch": "2025-12-14T06:59:47.605344",
        "meta_mean_motion": 14.401796,
        "meta_eccentricity": 0.02138207,
        "meta_inclination": 98.3176,
        "meta_ra_of_asc_node": 7.0935,
        "meta_arg_of_pericenter": 167.5441,
        "meta_mean_anomaly": 193.1153,
        "meta_ephemeris_type": 0,
        "meta_classification_type": "U",
        "meta_norad_cat_id": 31252,
        "meta_element_set_no": 999,
        "meta_rev_at_epoch": 97229,
        "meta_bstar": 0.00043699446,
        "meta_mean_motion_dot": 1.76e-05,
        "meta_mean_motion_ddot": 0,
        "tle_line1": "1 31252U 99025BMJ 25348.29152321  .00001760  00000+0  43699-3 0  9992",
        "tle_line2": "2 31252  98.3176   7.0935 0213820 167.5441 193.1153 14.40179600972291"
      },
      "geometry": {
        "type": "Point",
        "coordinates": [
          -179.56275487820497,
          -41.77078957934318
        ]
      }
    },
    {
      "type": "Feature",
      "properties": {
        "norad_id": 31253,
        "name": "FENGYUN 1C DEB",
        "group": "fengyun-1c-debris",
        "lat": 11.351647958236157,
        "lon": 52.34908664921966,
        "alt_km": 813.6453956912392,
        "timestamp": "2025-12-15T04:01:20.732948+00:00",
        "meta_object_name": "FENGYUN 1C DEB",
        "meta_object_id": "1999-025BMK",
        "meta_epoch": "2025-12-10T11:03:14.516352",
        "meta_mean_motion": 14.03597801,
        "meta_eccentricity": 0.02905912,
        "meta_inclination": 99.0776,
        "meta_ra_of_asc_node": 49.4834,
        "meta_arg_of_pericenter": 97.1731,
        "meta_mean_anomaly": 266.2566,
        "meta_ephemeris_type": 0,
        "meta_classification_type": "U",
        "meta_norad_cat_id": 31253,
        "meta_element_set_no": 999,
        "meta_rev_at_epoch": 68966,
        "meta_bstar": 0.00043343724,
        "meta_mean_motion_dot": 9.45e-06,
        "meta_mean_motion_ddot": 0,
        "tle_line1": "1 31253U 99025BMK 25344.46058468  .00000945  00000+0  43344-3 0  9996",
        "tle_line2": "2 31253  99.0776  49.4834 0290591  97.1731 266.2566 14.03597801689666"
      },
      "geometry": {
        "type": "Point",
        "coordinates": [
          52.34908664921966,
          11.351647958236157
        ]
      }
    },
    {
      "type": "Feature",
      "properties": {
        "norad_id": 31254,
        "name": "FENGYUN 1C DEB",
        "group": "fengyun-1c-debris",
        "lat": -3.844027239597324,
        "lon": 39.39197237725974,
        "alt_km": 876.3578868335189,
        "timestamp": "2025-12-15T04:01:20.732958+00:00",
        "meta_object_name": "FENGYUN 1C DEB",
        "meta_object_id": "1999-025BML",
        "meta_epoch": "2025-12-13T08:51:10.253952",
        "meta_mean_motion": 14.36360687,
        "meta_eccentricity": 0.01513956,
        "meta_inclination": 98.4632,
        "meta_ra_of_asc_node": 37.0511,
        "meta_arg_of_pericenter": 200.1968,
        "meta_mean_anomaly": 219.7406,
        "meta_ephemeris_type": 0,
        "meta_classification_type": "U",
        "meta_norad_cat_id": 31254,
        "meta_element_set_no": 999,
        "meta_rev_at_epoch": 97525,
        "meta_bstar": 0.00088175552,
        "meta_mean_motion_dot": 2.895e-05,
        "meta_mean_motion_ddot": 0,
        "tle_line1": "1 31254U 99025BML 25347.36886868  .00002895  00000+0  88176-3 0  9990",
        "tle_line2": "2 31254  98.4632  37.0511 0151395 200.1968 219.7406 14.36360687975257"
      },
      "geometry": {
        "type": "Point",
        "coordinates": [
          39.39197237725974,
          -3.844027239597324
        ]
      }
    },
    {
      "type": "Feature",
      "properties": {
        "norad_id": 31255,
        "name": "FENGYUN 1C DEB",
        "group": "fengyun-1c-debris",
        "lat": 44.8033203718554,
        "lon": 156.96319218774926,
        "alt_km": 781.3150540319639,
        "timestamp": "2025-12-15T04:01:20.732968+00:00",
        "meta_object_name": "FENGYUN 1C DEB",
        "meta_object_id": "1999-025BMM",
        "meta_epoch": "2025-12-14T05:40:17.272128",
        "meta_mean_motion": 14.09730708,
        "meta_eccentricity": 0.0270586,
        "meta_inclination": 99.3083,
        "meta_ra_of_asc_node": 165.3738,
        "meta_arg_of_pericenter": 339.3319,
        "meta_mean_anomaly": 19.707,
        "meta_ephemeris_type": 0,
        "meta_classification_type": "U",
        "meta_norad_cat_id": 31255,
        "meta_element_set_no": 999,
        "meta_rev_at_epoch": 96822,
        "meta_bstar": 0.00034927297,
        "meta_mean_motion_dot": 8.08e-06,
        "meta_mean_motion_ddot": 0,
        "tle_line1": "1 31255U 99025BMM 25348.23631102  .00000808  00000+0  34927-3 0  9994",
        "tle_line2": "2 31255  99.3083 165.3738 0270586 339.3319  19.7070 14.09730708968222"
      },
      "geometry": {
        "type": "Point",
        "coordinates": [
          156.96319218774926,
          44.8033203718554
        ]
      }
    },
    {
      "type": "Feature",
      "properties": {
        "norad_id": 31256,
        "name": "FENGYUN 1C DEB",
        "group": "fengyun-1c-debris",
        "lat": -38.398406068189,
        "lon": 9.764716145509182,
        "alt_km": 965.4187302647188,
        "timestamp": "2025-12-15T04:01:20.732978+00:00",
        "meta_object_name": "FENGYUN 1C DEB",
        "meta_object_id": "1999-025BMN",
        "meta_epoch": "2025-12-12T20:15:20.871648",
        "meta_mean_motion": 14.03288041,
        "meta_eccentricity": 0.03084701,
        "meta_inclination": 98.6814,
        "meta_ra_of_asc_node": 194.4983,
        "meta_arg_of_pericenter": 113.6621,
        "meta_mean_anomaly": 249.7243,
        "meta_ephemeris_type": 0,
        "meta_classification_type": "U",
        "meta_norad_cat_id": 31256,
        "meta_element_set_no": 999,
        "meta_rev_at_epoch": 64983,
        "meta_bstar": 0.0035765382,
        "meta_mean_motion_dot": 8.48e-05,
        "meta_mean_motion_ddot": 0,
        "tle_line1": "1 31256U 99025BMN 25346.84399157  .00008480  00000+0  35765-2 0  9995",
        "tle_line2": "2 31256  98.6814 194.4983 0308470 113.6621 249.7243 14.03288041649837"
      },
      "geometry": {
        "type": "Point",
        "coordinates": [
          9.764716145509182,
          -38.398406068189
        ]
      }
    }
  ]
}